start=new Date('2022-02-15T00:00:00.000Z').valueOf();
sats=[{"TLE_LINE1":"1 49435U 21104AD  22045.91667824 -.00318045  00000-0 -76331-2 0  9994","LAUNCH_DATE":"2021-11-13","REV_AT_EPOCH":"366","MEAN_MOTION_DOT":"-0.00318045","PERIAPSIS":"438.769","OBJECT_ID":"2021-104AD","RCS_SIZE":"LARGE","ECCENTRICITY":"0.00018870","BSTAR":"-0.00763310000000","OBJECT_NAME":"STARLINK-3117","FILE":"3300727","MEAN_MOTION_DDOT":"0.0000000000000","OBJECT_TYPE":"PAYLOAD","CENTER_NAME":"EARTH","SEMIMAJOR_AXIS":"6818.190","PERIOD":"93.382","DECAY_DATE":null,"TLE_LINE2":"2 49435  53.2174  36.1241 0001887  33.8896 101.2910 15.42052186  3660","GP_ID":"195969784","RA_OF_ASC_NODE":"36.1241","SITE":"AFETR","APOAPSIS":"441.342","REF_FRAME":"TEME","MEAN_MOTION":"15.42052186","ELEMENT_SET_NO":"999","MEAN_ELEMENT_THEORY":"SGP4","INCLINATION":"53.2174","ARG_OF_PERICENTER":"33.8896","NORAD_CAT_ID":"49435","CLASSIFICATION_TYPE":"U","EPOCH":"2022-02-14T22:00:00.999936","COUNTRY_CODE":"US","TIME_SYSTEM":"UTC","EPHEMERIS_TYPE":"0","MEAN_ANOMALY":"101.2910"},{"ELEMENT_SET_NO":"999","ARG_OF_PERICENTER":"39.1227","INCLINATION":"53.2174","MEAN_ELEMENT_THEORY":"SGP4","GP_ID":"195968534","RA_OF_ASC_NODE":"33.1082","TLE_LINE2":"2 49436  53.2174  33.1082 0001821  39.1227 181.8449 15.43347552  3684","DECAY_DATE":null,"MEAN_MOTION":"15.43347552","REF_FRAME":"TEME","APOAPSIS":"437.481","SITE":"AFETR","MEAN_ANOMALY":"181.8449","EPHEMERIS_TYPE":"0","COUNTRY_CODE":"US","TIME_SYSTEM":"UTC","EPOCH":"2022-02-14T22:00:00.999936","NORAD_CAT_ID":"49436","CLASSIFICATION_TYPE":"U","ECCENTRICITY":"0.00018210","RCS_SIZE":"LARGE","OBJECT_ID":"2021-104AE","REV_AT_EPOCH":"368","LAUNCH_DATE":"2021-11-13","TLE_LINE1":"1 49436U 21104AE  22045.91667824 -.00662627  00000-0 -15719-1 0  9995","PERIAPSIS":"434.999","MEAN_MOTION_DOT":"-0.00662627","FILE":"3300727","OBJECT_NAME":"STARLINK-3049","PERIOD":"93.304","SEMIMAJOR_AXIS":"6814.375","OBJECT_TYPE":"PAYLOAD","CENTER_NAME":"EARTH","MEAN_MOTION_DDOT":"0.0000000000000","BSTAR":"-0.01571900000000"},{"TIME_SYSTEM":"UTC","COUNTRY_CODE":"US","EPHEMERIS_TYPE":"0","EPOCH":"2022-02-14T22:00:00.999936","MEAN_ANOMALY":"196.2634","CLASSIFICATION_TYPE":"U","NORAD_CAT_ID":"49437","INCLINATION":"53.2174","MEAN_ELEMENT_THEORY":"SGP4","ARG_OF_PERICENTER":"44.7023","ELEMENT_SET_NO":"999","APOAPSIS":"436.724","SITE":"AFETR","MEAN_MOTION":"15.43571855","REF_FRAME":"TEME","DECAY_DATE":null,"RA_OF_ASC_NODE":"33.1060","GP_ID":"195968784","TLE_LINE2":"2 49437  53.2174  33.1060 0001679  44.7023 196.2634 15.43571855  3689","MEAN_MOTION_DDOT":"0.0000000000000","PERIOD":"93.290","SEMIMAJOR_AXIS":"6813.715","CENTER_NAME":"EARTH","OBJECT_TYPE":"PAYLOAD","OBJECT_NAME":"STARLINK-3130","FILE":"3300727","BSTAR":"-0.01558800000000","RCS_SIZE":"LARGE","OBJECT_ID":"2021-104AF","ECCENTRICITY":"0.00016790","MEAN_MOTION_DOT":"-0.00662145","PERIAPSIS":"434.436","TLE_LINE1":"1 49437U 21104AF  22045.91667824 -.00662145  00000-0 -15588-1 0  9995","LAUNCH_DATE":"2021-11-13","REV_AT_EPOCH":"368"},{"MEAN_ELEMENT_THEORY":"SGP4","INCLINATION":"53.2172","ARG_OF_PERICENTER":"38.3462","ELEMENT_SET_NO":"999","SITE":"AFETR","APOAPSIS":"436.089","MEAN_MOTION":"15.43803413","REF_FRAME":"TEME","DECAY_DATE":null,"TLE_LINE2":"2 49438  53.2172  33.5000 0001748  38.3462 108.9332 15.43803413  3671","RA_OF_ASC_NODE":"33.5000","GP_ID":"195969034","EPOCH":"2022-02-14T20:00:01.000224","TIME_SYSTEM":"UTC","COUNTRY_CODE":"US","EPHEMERIS_TYPE":"0","MEAN_ANOMALY":"108.9332","CLASSIFICATION_TYPE":"U","NORAD_CAT_ID":"49438","OBJECT_ID":"2021-104AG","RCS_SIZE":"LARGE","ECCENTRICITY":"0.00017480","MEAN_MOTION_DOT":"-0.00662046","PERIAPSIS":"433.707","TLE_LINE1":"1 49438U 21104AG  22045.83334491 -.00662046  00000-0 -15463-1 0  9990","LAUNCH_DATE":"2021-11-13","REV_AT_EPOCH":"367","MEAN_MOTION_DDOT":"0.0000000000000","CENTER_NAME":"EARTH","OBJECT_TYPE":"PAYLOAD","PERIOD":"93.276","SEMIMAJOR_AXIS":"6813.033","OBJECT_NAME":"STARLINK-3044","FILE":"3300727","BSTAR":"-0.01546300000000"},{"CLASSIFICATION_TYPE":"U","NORAD_CAT_ID":"49439","EPOCH":"2022-02-14T20:00:01.000224","EPHEMERIS_TYPE":"0","COUNTRY_CODE":"US","TIME_SYSTEM":"UTC","MEAN_ANOMALY":"151.7208","SITE":"AFETR","APOAPSIS":"434.334","REF_FRAME":"TEME","MEAN_MOTION":"15.44378993","DECAY_DATE":null,"TLE_LINE2":"2 49439  53.2172  33.4949 0001657  43.3587 151.7208 15.44378993  3675","RA_OF_ASC_NODE":"33.4949","GP_ID":"195969284","MEAN_ELEMENT_THEORY":"SGP4","INCLINATION":"53.2172","ARG_OF_PERICENTER":"43.3587","ELEMENT_SET_NO":"999","BSTAR":"-0.01515300000000","MEAN_MOTION_DDOT":"0.0000000000000","CENTER_NAME":"EARTH","OBJECT_TYPE":"PAYLOAD","PERIOD":"93.241","SEMIMAJOR_AXIS":"6811.340","OBJECT_NAME":"STARLINK-3108","FILE":"3300727","MEAN_MOTION_DOT":"-0.00653831","PERIAPSIS":"432.077","TLE_LINE1":"1 49439U 21104AH  22045.83334491 -.00653831  00000-0 -15153-1 0  9999","LAUNCH_DATE":"2021-11-13","REV_AT_EPOCH":"367","OBJECT_ID":"2021-104AH","RCS_SIZE":"LARGE","ECCENTRICITY":"0.00016570"},{"FILE":"3300727","OBJECT_NAME":"STARLINK-3105","PERIOD":"93.269","SEMIMAJOR_AXIS":"6812.694","CENTER_NAME":"EARTH","OBJECT_TYPE":"PAYLOAD","MEAN_MOTION_DDOT":"0.0000000000000","BSTAR":"-0.01540400000000","ECCENTRICITY":"0.00017460","RCS_SIZE":"LARGE","OBJECT_ID":"2021-104AJ","REV_AT_EPOCH":"367","LAUNCH_DATE":"2021-11-13","TLE_LINE1":"1 49440U 21104AJ  22045.83334491 -.00654267  00000-0 -15404-1 0  9994","PERIAPSIS":"433.370","MEAN_MOTION_DOT":"-0.00654267","MEAN_ANOMALY":"118.4300","COUNTRY_CODE":"US","TIME_SYSTEM":"UTC","EPHEMERIS_TYPE":"0","EPOCH":"2022-02-14T20:00:01.000224","NORAD_CAT_ID":"49440","CLASSIFICATION_TYPE":"U","ELEMENT_SET_NO":"999","ARG_OF_PERICENTER":"38.4775","INCLINATION":"53.2172","MEAN_ELEMENT_THEORY":"SGP4","RA_OF_ASC_NODE":"33.4991","GP_ID":"195968034","TLE_LINE2":"2 49440  53.2172  33.4991 0001746  38.4775 118.4300 15.43918577  3677","DECAY_DATE":null,"REF_FRAME":"TEME","MEAN_MOTION":"15.43918577","APOAPSIS":"435.749","SITE":"AFETR"},{"RCS_SIZE":"LARGE","OBJECT_ID":"2021-104AK","ECCENTRICITY":"0.00017330","TLE_LINE1":"1 49441U 21104AK  22045.83334491 -.00653745  00000-0 -15091-1 0  9997","REV_AT_EPOCH":"367","LAUNCH_DATE":"2021-11-13","MEAN_MOTION_DOT":"-0.00653745","PERIAPSIS":"431.687","OBJECT_NAME":"STARLINK-3128","FILE":"3300727","MEAN_MOTION_DDOT":"0.0000000000000","SEMIMAJOR_AXIS":"6811.002","PERIOD":"93.234","OBJECT_TYPE":"PAYLOAD","CENTER_NAME":"EARTH","BSTAR":"-0.01509100000000","ELEMENT_SET_NO":"999","INCLINATION":"53.2172","MEAN_ELEMENT_THEORY":"SGP4","ARG_OF_PERICENTER":"40.4107","DECAY_DATE":null,"RA_OF_ASC_NODE":"33.4937","GP_ID":"195968284","TLE_LINE2":"2 49441  53.2172  33.4937 0001733  40.4107 164.1266 15.44494093  3678","APOAPSIS":"434.047","SITE":"AFETR","REF_FRAME":"TEME","MEAN_MOTION":"15.44494093","EPHEMERIS_TYPE":"0","COUNTRY_CODE":"US","TIME_SYSTEM":"UTC","EPOCH":"2022-02-14T20:00:01.000224","MEAN_ANOMALY":"164.1266","NORAD_CAT_ID":"49441","CLASSIFICATION_TYPE":"U"},{"REV_AT_EPOCH":"367","LAUNCH_DATE":"2021-11-13","TLE_LINE1":"1 49442U 21104AL  22045.83334491 -.00654198  00000-0 -15342-1 0  9990","PERIAPSIS":"433.058","MEAN_MOTION_DOT":"-0.00654198","ECCENTRICITY":"0.00017070","RCS_SIZE":"LARGE","OBJECT_ID":"2021-104AL","BSTAR":"-0.01534200000000","FILE":"3300727","OBJECT_NAME":"STARLINK-3098","PERIOD":"93.262","SEMIMAJOR_AXIS":"6812.356","OBJECT_TYPE":"PAYLOAD","CENTER_NAME":"EARTH","MEAN_MOTION_DDOT":"0.0000000000000","RA_OF_ASC_NODE":"33.4981","GP_ID":"195969535","TLE_LINE2":"2 49442  53.2172  33.4981 0001707  40.2284 126.2732 15.44033708  3672","DECAY_DATE":null,"REF_FRAME":"TEME","MEAN_MOTION":"15.44033708","APOAPSIS":"435.384","SITE":"AFETR","ELEMENT_SET_NO":"999","ARG_OF_PERICENTER":"40.2284","INCLINATION":"53.2172","MEAN_ELEMENT_THEORY":"SGP4","NORAD_CAT_ID":"49442","CLASSIFICATION_TYPE":"U","MEAN_ANOMALY":"126.2732","COUNTRY_CODE":"US","EPHEMERIS_TYPE":"0","TIME_SYSTEM":"UTC","EPOCH":"2022-02-14T20:00:01.000224"},{"BSTAR":"-0.01502600000000","FILE":"3300727","OBJECT_NAME":"STARLINK-3136","PERIOD":"93.227","SEMIMAJOR_AXIS":"6810.664","OBJECT_TYPE":"PAYLOAD","CENTER_NAME":"EARTH","MEAN_MOTION_DDOT":"0.0000000000000","REV_AT_EPOCH":"367","LAUNCH_DATE":"2021-11-13","TLE_LINE1":"1 49443U 21104AM  22045.83334491 -.00653528  00000-0 -15026-1 0  9996","PERIAPSIS":"431.306","MEAN_MOTION_DOT":"-0.00653528","ECCENTRICITY":"0.00017950","RCS_SIZE":"LARGE","OBJECT_ID":"2021-104AM","NORAD_CAT_ID":"49443","CLASSIFICATION_TYPE":"U","MEAN_ANOMALY":"175.3368","EPHEMERIS_TYPE":"0","COUNTRY_CODE":"US","TIME_SYSTEM":"UTC","EPOCH":"2022-02-14T20:00:01.000224","GP_ID":"195969785","RA_OF_ASC_NODE":"33.4923","TLE_LINE2":"2 49443  53.2172  33.4923 0001795  38.6244 175.3368 15.44609137  3678","DECAY_DATE":null,"REF_FRAME":"TEME","MEAN_MOTION":"15.44609137","APOAPSIS":"433.751","SITE":"AFETR","ELEMENT_SET_NO":"999","ARG_OF_PERICENTER":"38.6244","INCLINATION":"53.2172","MEAN_ELEMENT_THEORY":"SGP4"},{"EPOCH":"2022-02-14T20:00:01.000224","EPHEMERIS_TYPE":"0","COUNTRY_CODE":"US","TIME_SYSTEM":"UTC","MEAN_ANOMALY":"133.0248","CLASSIFICATION_TYPE":"U","NORAD_CAT_ID":"49444","MEAN_ELEMENT_THEORY":"SGP4","INCLINATION":"53.2172","ARG_OF_PERICENTER":"43.0368","ELEMENT_SET_NO":"999","SITE":"AFETR","APOAPSIS":"435.028","MEAN_MOTION":"15.44148854","REF_FRAME":"TEME","DECAY_DATE":null,"TLE_LINE2":"2 49444  53.2172  33.4971 0001682  43.0368 133.0248 15.44148854  3676","GP_ID":"195968535","RA_OF_ASC_NODE":"33.4971","MEAN_MOTION_DDOT":"0.0000000000000","OBJECT_TYPE":"PAYLOAD","CENTER_NAME":"EARTH","PERIOD":"93.255","SEMIMAJOR_AXIS":"6812.017","OBJECT_NAME":"STARLINK-3126","FILE":"3300727","BSTAR":"-0.01528000000000","OBJECT_ID":"2021-104AN","RCS_SIZE":"LARGE","ECCENTRICITY":"0.00016820","MEAN_MOTION_DOT":"-0.00654123","PERIAPSIS":"432.736","TLE_LINE1":"1 49444U 21104AN  22045.83334491 -.00654123  00000-0 -15280-1 0  9991","REV_AT_EPOCH":"367","LAUNCH_DATE":"2021-11-13"}];
